DELTA 1 R/B             
1 20323U 89089B   25299.38735609  .00000468  00000+0  12470-3 0  9996
2 20323  97.0807 163.1187 0068950 185.7950 174.2458 14.50513949876264
ARIANE 40 R/B           
1 20443U 90005H   25299.41254061  .00000455  00000+0  15884-3 0  9999
2 20443  98.3307 358.9132 0009100 245.8668 114.1570 14.39743815873489
DELTA 2 R/B(1)          
1 20453U 90008B   25299.38881748  .00031678  00000+0  57750-3 0  9996
2 20453  35.6079 325.2957 0118499 107.8321 253.5376 15.40986068905319
COSMOS 2058             
1 20465U 90010A   25299.38308303  .00004042  00000+0  24706-3 0  9993
2 20465  82.4706 179.6054 0011298  72.8238 287.4227 15.09956744921968
SL-14 R/B               
1 20466U 90010B   25299.52870656  .00000689  00000+0  80806-4 0  9992
2 20466  82.5053  33.3749 0020447  26.0392 334.1847 14.83406178908594
SL-14 R/B               
1 20511U 90018B   25299.41745786  .00000586  00000+0  70805-4 0  9998
2 20511  82.5231 348.5976 0016716 168.9246 191.2340 14.81981789902693
HST                     
1 20580U 90037B   25299.23101266  .00009097  00000+0  32384-3 0  9999
2 20580  28.4678 235.6408 0002167  65.9954 294.0868 15.27150496752724
SL-16 R/B               
1 20625U 90046B   25299.24034804  .00000265  00000+0  16153-3 0  9997
2 20625  70.9998 220.2711 0013158 157.3177 202.8529 14.14990338829372
COSMOS 2084             
1 20663U 90055A   25299.52012480  .00005660  00000+0  40865-3 0  9997
2 20663  62.7910  72.8348 0039734 169.1541 191.0426 15.04576807916124
SL-6 R/B(2)             
1 20666U 90055D   25299.46040110  .00002813  00000+0  22385-3 0  9998
2 20666  62.7849 350.0216 0010746 265.2657  94.7215 15.02730421918018
SL-8 R/B                
1 20775U 90078B   25299.48604734  .00017648  00000+0  54682-3 0  9991
2 20775  82.9087  11.5053 0383885 103.6771 260.7489 14.83604330789363
SL-8 R/B                
1 21088U 91006B   25299.40143375  .00000186  00000+0  17113-3 0  9999
2 21088  82.9392 269.9299 0023706  53.5175  57.2193 13.77478888745581
