CCSDS_OMM_VERS = 2.0
CREATION_DATE  = 
ORIGINATOR     = 

OBJECT_NAME    = DELTA 1 R/B
OBJECT_ID      = 1989-089B
CENTER_NAME    = EARTH
REF_FRAME      = TEME
TIME_SYSTEM    = UTC
MEAN_ELEMENT_THEORY = SGP/SGP4

EPOCH          = 2025-10-26T09:17:47.566176
MEAN_MOTION    = 14.50513949
ECCENTRICITY   = .006895
INCLINATION    = 97.0807
RA_OF_ASC_NODE = 163.1187
ARG_OF_PERICENTER = 185.7950
MEAN_ANOMALY   = 174.2458

EPHEMERIS_TYPE = 0
CLASSIFICATION_TYPE = U
NORAD_CAT_ID   = 20323
ELEMENT_SET_NO = 999
REV_AT_EPOCH   = 87626
BSTAR          = .1247E-3
MEAN_MOTION_DOT = .468E-5
MEAN_MOTION_DDOT = 0

CCSDS_OMM_VERS = 2.0
CREATION_DATE  = 
ORIGINATOR     = 

OBJECT_NAME    = ARIANE 40 R/B
OBJECT_ID      = 1990-005H
CENTER_NAME    = EARTH
REF_FRAME      = TEME
TIME_SYSTEM    = UTC
MEAN_ELEMENT_THEORY = SGP/SGP4

EPOCH          = 2025-10-26T09:54:03.508704
MEAN_MOTION    = 14.39743815
ECCENTRICITY   = .00091
INCLINATION    = 98.3307
RA_OF_ASC_NODE = 358.9132
ARG_OF_PERICENTER = 245.8668
MEAN_ANOMALY   = 114.1570

EPHEMERIS_TYPE = 0
CLASSIFICATION_TYPE = U
NORAD_CAT_ID   = 20443
ELEMENT_SET_NO = 999
REV_AT_EPOCH   = 87348
BSTAR          = .15884E-3
MEAN_MOTION_DOT = .455E-5
MEAN_MOTION_DDOT = 0

CCSDS_OMM_VERS = 2.0
CREATION_DATE  = 
ORIGINATOR     = 

OBJECT_NAME    = DELTA 2 R/B(1)
OBJECT_ID      = 1990-008B
CENTER_NAME    = EARTH
REF_FRAME      = TEME
TIME_SYSTEM    = UTC
MEAN_ELEMENT_THEORY = SGP/SGP4

EPOCH          = 2025-10-26T09:19:53.830272
MEAN_MOTION    = 15.40986068
ECCENTRICITY   = .0118499
INCLINATION    = 35.6079
RA_OF_ASC_NODE = 325.2957
ARG_OF_PERICENTER = 107.8321
MEAN_ANOMALY   = 253.5376

EPHEMERIS_TYPE = 0
CLASSIFICATION_TYPE = U
NORAD_CAT_ID   = 20453
ELEMENT_SET_NO = 999
REV_AT_EPOCH   = 90531
BSTAR          = .5775E-3
MEAN_MOTION_DOT = .31678E-3
MEAN_MOTION_DDOT = 0

CCSDS_OMM_VERS = 2.0
CREATION_DATE  = 
ORIGINATOR     = 

OBJECT_NAME    = COSMOS 2058
OBJECT_ID      = 1990-010A
CENTER_NAME    = EARTH
REF_FRAME      = TEME
TIME_SYSTEM    = UTC
MEAN_ELEMENT_THEORY = SGP/SGP4

EPOCH          = 2025-10-26T09:11:38.373792
MEAN_MOTION    = 15.09956744
ECCENTRICITY   = .0011298
INCLINATION    = 82.4706
RA_OF_ASC_NODE = 179.6054
ARG_OF_PERICENTER = 72.8238
MEAN_ANOMALY   = 287.4227

EPHEMERIS_TYPE = 0
CLASSIFICATION_TYPE = U
NORAD_CAT_ID   = 20465
ELEMENT_SET_NO = 999
REV_AT_EPOCH   = 92196
BSTAR          = .24706E-3
MEAN_MOTION_DOT = .4042E-4
MEAN_MOTION_DDOT = 0

CCSDS_OMM_VERS = 2.0
CREATION_DATE  = 
ORIGINATOR     = 

OBJECT_NAME    = SL-14 R/B
OBJECT_ID      = 1990-010B
CENTER_NAME    = EARTH
REF_FRAME      = TEME
TIME_SYSTEM    = UTC
MEAN_ELEMENT_THEORY = SGP/SGP4

EPOCH          = 2025-10-26T12:41:20.246784
MEAN_MOTION    = 14.83406178
ECCENTRICITY   = .0020447
INCLINATION    = 82.5053
RA_OF_ASC_NODE = 33.3749
ARG_OF_PERICENTER = 26.0392
MEAN_ANOMALY   = 334.1847

EPHEMERIS_TYPE = 0
CLASSIFICATION_TYPE = U
NORAD_CAT_ID   = 20466
ELEMENT_SET_NO = 999
REV_AT_EPOCH   = 90859
BSTAR          = .80806E-4
MEAN_MOTION_DOT = .689E-5
MEAN_MOTION_DDOT = 0

CCSDS_OMM_VERS = 2.0
CREATION_DATE  = 
ORIGINATOR     = 

OBJECT_NAME    = SL-14 R/B
OBJECT_ID      = 1990-018B
CENTER_NAME    = EARTH
REF_FRAME      = TEME
TIME_SYSTEM    = UTC
MEAN_ELEMENT_THEORY = SGP/SGP4

EPOCH          = 2025-10-26T10:01:08.359104
MEAN_MOTION    = 14.81981789
ECCENTRICITY   = .0016716
INCLINATION    = 82.5231
RA_OF_ASC_NODE = 348.5976
ARG_OF_PERICENTER = 168.9246
MEAN_ANOMALY   = 191.2340

EPHEMERIS_TYPE = 0
CLASSIFICATION_TYPE = U
NORAD_CAT_ID   = 20511
ELEMENT_SET_NO = 999
REV_AT_EPOCH   = 90269
BSTAR          = .70805E-4
MEAN_MOTION_DOT = .586E-5
MEAN_MOTION_DDOT = 0

CCSDS_OMM_VERS = 2.0
CREATION_DATE  = 
ORIGINATOR     = 

OBJECT_NAME    = HST
OBJECT_ID      = 1990-037B
CENTER_NAME    = EARTH
REF_FRAME      = TEME
TIME_SYSTEM    = UTC
MEAN_ELEMENT_THEORY = SGP/SGP4

EPOCH          = 2025-10-26T05:32:39.493824
MEAN_MOTION    = 15.27150496
ECCENTRICITY   = .0002167
INCLINATION    = 28.4678
RA_OF_ASC_NODE = 235.6408
ARG_OF_PERICENTER = 65.9954
MEAN_ANOMALY   = 294.0868

EPHEMERIS_TYPE = 0
CLASSIFICATION_TYPE = U
NORAD_CAT_ID   = 20580
ELEMENT_SET_NO = 999
REV_AT_EPOCH   = 75272
BSTAR          = .32384E-3
MEAN_MOTION_DOT = .9097E-4
MEAN_MOTION_DDOT = 0

CCSDS_OMM_VERS = 2.0
CREATION_DATE  = 
ORIGINATOR     = 

OBJECT_NAME    = SL-16 R/B
OBJECT_ID      = 1990-046B
CENTER_NAME    = EARTH
REF_FRAME      = TEME
TIME_SYSTEM    = UTC
MEAN_ELEMENT_THEORY = SGP/SGP4

EPOCH          = 2025-10-26T05:46:06.070656
MEAN_MOTION    = 14.14990338
ECCENTRICITY   = .0013158
INCLINATION    = 70.9998
RA_OF_ASC_NODE = 220.2711
ARG_OF_PERICENTER = 157.3177
MEAN_ANOMALY   = 202.8529

EPHEMERIS_TYPE = 0
CLASSIFICATION_TYPE = U
NORAD_CAT_ID   = 20625
ELEMENT_SET_NO = 999
REV_AT_EPOCH   = 82937
BSTAR          = .16153E-3
MEAN_MOTION_DOT = .265E-5
MEAN_MOTION_DDOT = 0

CCSDS_OMM_VERS = 2.0
CREATION_DATE  = 
ORIGINATOR     = 

OBJECT_NAME    = COSMOS 2084
OBJECT_ID      = 1990-055A
CENTER_NAME    = EARTH
REF_FRAME      = TEME
TIME_SYSTEM    = UTC
MEAN_ELEMENT_THEORY = SGP/SGP4

EPOCH          = 2025-10-26T12:28:58.782720
MEAN_MOTION    = 15.04576807
ECCENTRICITY   = .0039734
INCLINATION    = 62.7910
RA_OF_ASC_NODE = 72.8348
ARG_OF_PERICENTER = 169.1541
MEAN_ANOMALY   = 191.0426

EPHEMERIS_TYPE = 0
CLASSIFICATION_TYPE = U
NORAD_CAT_ID   = 20663
ELEMENT_SET_NO = 999
REV_AT_EPOCH   = 91612
BSTAR          = .40865E-3
MEAN_MOTION_DOT = .566E-4
MEAN_MOTION_DDOT = 0

CCSDS_OMM_VERS = 2.0
CREATION_DATE  = 
ORIGINATOR     = 

OBJECT_NAME    = SL-6 R/B(2)
OBJECT_ID      = 1990-055D
CENTER_NAME    = EARTH
REF_FRAME      = TEME
TIME_SYSTEM    = UTC
MEAN_ELEMENT_THEORY = SGP/SGP4

EPOCH          = 2025-10-26T11:02:58.655040
MEAN_MOTION    = 15.02730421
ECCENTRICITY   = .0010746
INCLINATION    = 62.7849
RA_OF_ASC_NODE = 350.0216
ARG_OF_PERICENTER = 265.2657
MEAN_ANOMALY   = 94.7215

EPHEMERIS_TYPE = 0
CLASSIFICATION_TYPE = U
NORAD_CAT_ID   = 20666
ELEMENT_SET_NO = 999
REV_AT_EPOCH   = 91801
BSTAR          = .22385E-3
MEAN_MOTION_DOT = .2813E-4
MEAN_MOTION_DDOT = 0

CCSDS_OMM_VERS = 2.0
CREATION_DATE  = 
ORIGINATOR     = 

OBJECT_NAME    = SL-8 R/B
OBJECT_ID      = 1990-078B
CENTER_NAME    = EARTH
REF_FRAME      = TEME
TIME_SYSTEM    = UTC
MEAN_ELEMENT_THEORY = SGP/SGP4

EPOCH          = 2025-10-26T11:39:54.490176
MEAN_MOTION    = 14.83604330
ECCENTRICITY   = .0383885
INCLINATION    = 82.9087
RA_OF_ASC_NODE = 11.5053
ARG_OF_PERICENTER = 103.6771
MEAN_ANOMALY   = 260.7489

EPHEMERIS_TYPE = 0
CLASSIFICATION_TYPE = U
NORAD_CAT_ID   = 20775
ELEMENT_SET_NO = 999
REV_AT_EPOCH   = 78936
BSTAR          = .54682E-3
MEAN_MOTION_DOT = .17648E-3
MEAN_MOTION_DDOT = 0

CCSDS_OMM_VERS = 2.0
CREATION_DATE  = 
ORIGINATOR     = 

OBJECT_NAME    = SL-8 R/B
OBJECT_ID      = 1991-006B
CENTER_NAME    = EARTH
REF_FRAME      = TEME
TIME_SYSTEM    = UTC
MEAN_ELEMENT_THEORY = SGP/SGP4

EPOCH          = 2025-10-26T09:38:03.876000
MEAN_MOTION    = 13.77478888
ECCENTRICITY   = .0023706
INCLINATION    = 82.9392
RA_OF_ASC_NODE = 269.9299
ARG_OF_PERICENTER = 53.5175
MEAN_ANOMALY   = 57.2193

EPHEMERIS_TYPE = 0
CLASSIFICATION_TYPE = U
NORAD_CAT_ID   = 21088
ELEMENT_SET_NO = 999
REV_AT_EPOCH   = 74558
BSTAR          = .17113E-3
MEAN_MOTION_DOT = .186E-5
MEAN_MOTION_DDOT = 0

